STARLINK-36582          
1 67599U 26018L   26053.66544572  .00191757  00000+0  12565-2 0  9998
2 67599  97.2852 118.7481 0001411 104.3452 255.7970 15.75215441  4999
STARLINK-36640          
1 67600U 26018M   26053.68486368  .00222405  00000+0  14495-2 0  9990
2 67600  97.2838 118.7188 0002894  80.3005 279.8587 15.75250975  4940
STARLINK-36635          
1 67601U 26018N   26053.83336806 -.00177671  00000+0 -12112-2 0  9999
2 67601  97.2854 118.9546 0001604  94.2500 207.4375 15.75265368  4967
STARLINK-36631          
1 67602U 26018P   26053.83336806 -.01028277  00000+0 -73997-2 0  9996
2 67602  97.2849 118.9730 0001604  93.2316 254.0810 15.75888301  4950
STARLINK-36626          
1 67603U 26018Q   26053.65945491  .00538155  00000+0  33504-2 0  9991
2 67603  97.2847 118.7557 0001454  30.9167 329.2184 15.75437739  4942
STARLINK-36605          
1 67604U 26018R   26053.67709364  .00124807  00000+0  82296-3 0  9999
2 67604  97.2862 118.7305 0001495 103.7024 256.4407 15.75259985  4941
STARLINK-36281          
1 67605U 26018S   26053.76943618  .00443205  00000+0  21935-2 0  9990
2 67605  97.2837 118.9102 0001935 146.5844 213.5547 15.80871420  4966
STARLINK-35843          
1 67606U 26018T   26053.67144748  .00274715  00000+0  17821-2 0  9995
2 67606  97.2860 118.7402 0001516 105.6451 254.4981 15.75215734  4947
STARLINK-36351          
1 67607U 26018U   26053.65768575  .00353573  00000+0  22629-2 0  9996
2 67607  97.2847 118.7585 0001246  49.4930 310.6444 15.75308618  4945
STARLINK-36411          
1 67608U 26018V   26053.70097549  .00401108  00000+0  19964-2 0  9995
2 67608  97.2843 118.8504 0001373  97.3351 262.8073 15.80855776  4959
STARLINK-36312          
1 67609U 26018W   26053.65557436  .00550548  00000+0  34213-2 0  9993
2 67609  97.2840 118.7609 0001936  44.7704 315.3717 15.75446192  4945
STARLINK-36387          
1 67610U 26018X   26053.69834757  .00142868  00000+0  73147-3 0  9995
2 67610  97.2848 118.8530 0001557  91.2069 268.9378 15.80905191  4951
