CCSDS_OMM_VERS = 2.0
CREATION_DATE  = 
ORIGINATOR     = 

OBJECT_NAME    = STARLINK-36582
OBJECT_ID      = 2026-018L
CENTER_NAME    = EARTH
REF_FRAME      = TEME
TIME_SYSTEM    = UTC
MEAN_ELEMENT_THEORY = SGP/SGP4

EPOCH          = 2026-02-22T15:58:14.510208
MEAN_MOTION    = 15.75215441
ECCENTRICITY   = .0001411
INCLINATION    = 97.2852
RA_OF_ASC_NODE = 118.7481
ARG_OF_PERICENTER = 104.3452
MEAN_ANOMALY   = 255.7970

EPHEMERIS_TYPE = 0
CLASSIFICATION_TYPE = U
NORAD_CAT_ID   = 67599
ELEMENT_SET_NO = 999
REV_AT_EPOCH   = 499
BSTAR          = .12565E-2
MEAN_MOTION_DOT = .191757E-2
MEAN_MOTION_DDOT = 0

CCSDS_OMM_VERS = 2.0
CREATION_DATE  = 
ORIGINATOR     = 

OBJECT_NAME    = STARLINK-36640
OBJECT_ID      = 2026-018M
CENTER_NAME    = EARTH
REF_FRAME      = TEME
TIME_SYSTEM    = UTC
MEAN_ELEMENT_THEORY = SGP/SGP4

EPOCH          = 2026-02-22T16:26:12.221952
MEAN_MOTION    = 15.75250975
ECCENTRICITY   = .0002894
INCLINATION    = 97.2838
RA_OF_ASC_NODE = 118.7188
ARG_OF_PERICENTER = 80.3005
MEAN_ANOMALY   = 279.8587

EPHEMERIS_TYPE = 0
CLASSIFICATION_TYPE = U
NORAD_CAT_ID   = 67600
ELEMENT_SET_NO = 999
REV_AT_EPOCH   = 494
BSTAR          = .14495E-2
MEAN_MOTION_DOT = .222405E-2
MEAN_MOTION_DDOT = 0

CCSDS_OMM_VERS = 2.0
CREATION_DATE  = 
ORIGINATOR     = 

OBJECT_NAME    = STARLINK-36635
OBJECT_ID      = 2026-018N
CENTER_NAME    = EARTH
REF_FRAME      = TEME
TIME_SYSTEM    = UTC
MEAN_ELEMENT_THEORY = SGP/SGP4

EPOCH          = 2026-02-22T20:00:03.000384
MEAN_MOTION    = 15.75265368
ECCENTRICITY   = .0001604
INCLINATION    = 97.2854
RA_OF_ASC_NODE = 118.9546
ARG_OF_PERICENTER = 94.2500
MEAN_ANOMALY   = 207.4375

EPHEMERIS_TYPE = 0
CLASSIFICATION_TYPE = U
NORAD_CAT_ID   = 67601
ELEMENT_SET_NO = 999
REV_AT_EPOCH   = 496
BSTAR          = -.12112E-2
MEAN_MOTION_DOT = -.177671E-2
MEAN_MOTION_DDOT = 0

CCSDS_OMM_VERS = 2.0
CREATION_DATE  = 
ORIGINATOR     = 

OBJECT_NAME    = STARLINK-36631
OBJECT_ID      = 2026-018P
CENTER_NAME    = EARTH
REF_FRAME      = TEME
TIME_SYSTEM    = UTC
MEAN_ELEMENT_THEORY = SGP/SGP4

EPOCH          = 2026-02-22T20:00:03.000384
MEAN_MOTION    = 15.75888301
ECCENTRICITY   = .0001604
INCLINATION    = 97.2849
RA_OF_ASC_NODE = 118.9730
ARG_OF_PERICENTER = 93.2316
MEAN_ANOMALY   = 254.0810

EPHEMERIS_TYPE = 0
CLASSIFICATION_TYPE = U
NORAD_CAT_ID   = 67602
ELEMENT_SET_NO = 999
REV_AT_EPOCH   = 495
BSTAR          = -.73997E-2
MEAN_MOTION_DOT = -.1028277E-1
MEAN_MOTION_DDOT = 0

CCSDS_OMM_VERS = 2.0
CREATION_DATE  = 
ORIGINATOR     = 

OBJECT_NAME    = STARLINK-36626
OBJECT_ID      = 2026-018Q
CENTER_NAME    = EARTH
REF_FRAME      = TEME
TIME_SYSTEM    = UTC
MEAN_ELEMENT_THEORY = SGP/SGP4

EPOCH          = 2026-02-22T15:49:36.904224
MEAN_MOTION    = 15.75437739
ECCENTRICITY   = .0001454
INCLINATION    = 97.2847
RA_OF_ASC_NODE = 118.7557
ARG_OF_PERICENTER = 30.9167
MEAN_ANOMALY   = 329.2184

EPHEMERIS_TYPE = 0
CLASSIFICATION_TYPE = U
NORAD_CAT_ID   = 67603
ELEMENT_SET_NO = 999
REV_AT_EPOCH   = 494
BSTAR          = .33504E-2
MEAN_MOTION_DOT = .538155E-2
MEAN_MOTION_DDOT = 0

CCSDS_OMM_VERS = 2.0
CREATION_DATE  = 
ORIGINATOR     = 

OBJECT_NAME    = STARLINK-36605
OBJECT_ID      = 2026-018R
CENTER_NAME    = EARTH
REF_FRAME      = TEME
TIME_SYSTEM    = UTC
MEAN_ELEMENT_THEORY = SGP/SGP4

EPOCH          = 2026-02-22T16:15:00.890496
MEAN_MOTION    = 15.75259985
ECCENTRICITY   = .0001495
INCLINATION    = 97.2862
RA_OF_ASC_NODE = 118.7305
ARG_OF_PERICENTER = 103.7024
MEAN_ANOMALY   = 256.4407

EPHEMERIS_TYPE = 0
CLASSIFICATION_TYPE = U
NORAD_CAT_ID   = 67604
ELEMENT_SET_NO = 999
REV_AT_EPOCH   = 494
BSTAR          = .82296E-3
MEAN_MOTION_DOT = .124807E-2
MEAN_MOTION_DDOT = 0

CCSDS_OMM_VERS = 2.0
CREATION_DATE  = 
ORIGINATOR     = 

OBJECT_NAME    = STARLINK-36281
OBJECT_ID      = 2026-018S
CENTER_NAME    = EARTH
REF_FRAME      = TEME
TIME_SYSTEM    = UTC
MEAN_ELEMENT_THEORY = SGP/SGP4

EPOCH          = 2026-02-22T18:27:59.285952
MEAN_MOTION    = 15.80871420
ECCENTRICITY   = .0001935
INCLINATION    = 97.2837
RA_OF_ASC_NODE = 118.9102
ARG_OF_PERICENTER = 146.5844
MEAN_ANOMALY   = 213.5547

EPHEMERIS_TYPE = 0
CLASSIFICATION_TYPE = U
NORAD_CAT_ID   = 67605
ELEMENT_SET_NO = 999
REV_AT_EPOCH   = 496
BSTAR          = .21935E-2
MEAN_MOTION_DOT = .443205E-2
MEAN_MOTION_DDOT = 0

CCSDS_OMM_VERS = 2.0
CREATION_DATE  = 
ORIGINATOR     = 

OBJECT_NAME    = STARLINK-35843
OBJECT_ID      = 2026-018T
CENTER_NAME    = EARTH
REF_FRAME      = TEME
TIME_SYSTEM    = UTC
MEAN_ELEMENT_THEORY = SGP/SGP4

EPOCH          = 2026-02-22T16:06:53.062272
MEAN_MOTION    = 15.75215734
ECCENTRICITY   = .0001516
INCLINATION    = 97.2860
RA_OF_ASC_NODE = 118.7402
ARG_OF_PERICENTER = 105.6451
MEAN_ANOMALY   = 254.4981

EPHEMERIS_TYPE = 0
CLASSIFICATION_TYPE = U
NORAD_CAT_ID   = 67606
ELEMENT_SET_NO = 999
REV_AT_EPOCH   = 494
BSTAR          = .17821E-2
MEAN_MOTION_DOT = .274715E-2
MEAN_MOTION_DDOT = 0

CCSDS_OMM_VERS = 2.0
CREATION_DATE  = 
ORIGINATOR     = 

OBJECT_NAME    = STARLINK-36351
OBJECT_ID      = 2026-018U
CENTER_NAME    = EARTH
REF_FRAME      = TEME
TIME_SYSTEM    = UTC
MEAN_ELEMENT_THEORY = SGP/SGP4

EPOCH          = 2026-02-22T15:47:04.048800
MEAN_MOTION    = 15.75308618
ECCENTRICITY   = .0001246
INCLINATION    = 97.2847
RA_OF_ASC_NODE = 118.7585
ARG_OF_PERICENTER = 49.4930
MEAN_ANOMALY   = 310.6444

EPHEMERIS_TYPE = 0
CLASSIFICATION_TYPE = U
NORAD_CAT_ID   = 67607
ELEMENT_SET_NO = 999
REV_AT_EPOCH   = 494
BSTAR          = .22629E-2
MEAN_MOTION_DOT = .353573E-2
MEAN_MOTION_DDOT = 0

CCSDS_OMM_VERS = 2.0
CREATION_DATE  = 
ORIGINATOR     = 

OBJECT_NAME    = STARLINK-36411
OBJECT_ID      = 2026-018V
CENTER_NAME    = EARTH
REF_FRAME      = TEME
TIME_SYSTEM    = UTC
MEAN_ELEMENT_THEORY = SGP/SGP4

EPOCH          = 2026-02-22T16:49:24.282336
MEAN_MOTION    = 15.80855776
ECCENTRICITY   = .0001373
INCLINATION    = 97.2843
RA_OF_ASC_NODE = 118.8504
ARG_OF_PERICENTER = 97.3351
MEAN_ANOMALY   = 262.8073

EPHEMERIS_TYPE = 0
CLASSIFICATION_TYPE = U
NORAD_CAT_ID   = 67608
ELEMENT_SET_NO = 999
REV_AT_EPOCH   = 495
BSTAR          = .19964E-2
MEAN_MOTION_DOT = .401108E-2
MEAN_MOTION_DDOT = 0

CCSDS_OMM_VERS = 2.0
CREATION_DATE  = 
ORIGINATOR     = 

OBJECT_NAME    = STARLINK-36312
OBJECT_ID      = 2026-018W
CENTER_NAME    = EARTH
REF_FRAME      = TEME
TIME_SYSTEM    = UTC
MEAN_ELEMENT_THEORY = SGP/SGP4

EPOCH          = 2026-02-22T15:44:01.624704
MEAN_MOTION    = 15.75446192
ECCENTRICITY   = .0001936
INCLINATION    = 97.2840
RA_OF_ASC_NODE = 118.7609
ARG_OF_PERICENTER = 44.7704
MEAN_ANOMALY   = 315.3717

EPHEMERIS_TYPE = 0
CLASSIFICATION_TYPE = U
NORAD_CAT_ID   = 67609
ELEMENT_SET_NO = 999
REV_AT_EPOCH   = 494
BSTAR          = .34213E-2
MEAN_MOTION_DOT = .550548E-2
MEAN_MOTION_DDOT = 0

CCSDS_OMM_VERS = 2.0
CREATION_DATE  = 
ORIGINATOR     = 

OBJECT_NAME    = STARLINK-36387
OBJECT_ID      = 2026-018X
CENTER_NAME    = EARTH
REF_FRAME      = TEME
TIME_SYSTEM    = UTC
MEAN_ELEMENT_THEORY = SGP/SGP4

EPOCH          = 2026-02-22T16:45:37.230048
MEAN_MOTION    = 15.80905191
ECCENTRICITY   = .0001557
INCLINATION    = 97.2848
RA_OF_ASC_NODE = 118.8530
ARG_OF_PERICENTER = 91.2069
MEAN_ANOMALY   = 268.9378

EPHEMERIS_TYPE = 0
CLASSIFICATION_TYPE = U
NORAD_CAT_ID   = 67610
ELEMENT_SET_NO = 999
REV_AT_EPOCH   = 495
BSTAR          = .73147E-3
MEAN_MOTION_DOT = .142868E-2
MEAN_MOTION_DDOT = 0

